NORAD_CAT_ID,OBJECT_NAME,OBJECT_TYPE,EPOCH,MEAN_MOTION,ECCENTRICITY,INCLINATION,RA_OF_ASC_NODE,ARG_OF_PERICENTER,MEAN_ANOMALY,BSTAR,MEAN_MOTION_DOT,MEAN_MOTION_DDOT,TLE_LINE0,TLE_LINE1,TLE_LINE2,SEMIMAJOR_AXIS,PERIOD,APOGEE,PERIGEE,DECAYED
53616.0,STARLINK-4605,PAYLOAD,2023-01-21 04:39:57,15.08848356,0.0001409999999999,53.2186,317.47,75.305,284.8098,3.0881e-05,2.04e-06,0.0,0 STARLINK-4605,1 53616U 22104AE  23021.19441571  .00000204  00000-0  30881-4 0  9990,2 53616  53.2186 317.4700 0001410  75.3050 284.8098 15.08848356 22579,6917.855,95.437,540.695,538.744,0.0
53616.0,STARLINK-4605,PAYLOAD,2023-01-21 12:36:53,15.08837145,0.0001567,53.2187,315.9829,82.1547,277.9623,-3.7606e-05,-8.86e-06,0.0,0 STARLINK-4605,1 53616U 22104AE  23021.52562325 -.00000886  00000-0 -37606-4 0  9998,2 53616  53.2187 315.9829 0001567  82.1547 277.9623 15.08837145 22622,6917.889,95.438,540.8380000000001,538.67,0.0
53616.0,STARLINK-4605,PAYLOAD,2023-01-22 12:27:42,15.08828972,0.0002244,53.2185,311.5247,73.9308,286.1931,9.4906e-05,1.222e-05,0.0,0 STARLINK-4605,1 53616U 22104AE  23022.51923836  .00001222  00000-0  94906-4 0  9995,2 53616  53.2185 311.5247 0002244  73.9308 286.1931 15.08828972 22770,6917.914000000001,95.438,541.331,538.227,0.0
53616.0,STARLINK-4605,PAYLOAD,2023-01-23 04:21:32,15.08845107,0.0001269,53.2185,308.5484,78.1597,281.9538,6.2324e-05,7.04e-06,0.0,0 STARLINK-4605,1 53616U 22104AE  23023.18163010  .00000704  00000-0  62324-4 0  9992,2 53616  53.2185 308.5484 0001269  78.1597 281.9538 15.08845107 22878,6917.865,95.437,540.6080000000001,538.852,0.0
53616.0,STARLINK-4605,PAYLOAD,2023-01-24 01:01:33,15.088597,0.0001356,53.219,304.6849,60.7498,299.363,8.3044e-05,1.035e-05,0.0,0 STARLINK-4605,1 53616U 22104AE  23024.04274533  .00001035  00000-0  83044-4 0  9991,2 53616  53.2190 304.6849 0001356  60.7498 299.3630 15.08859700 23006,6917.82,95.436,540.623,538.747,0.0
53616.0,STARLINK-4605,PAYLOAD,2023-01-25 04:03:05,15.08868759,0.0001262999999999,53.2166,299.6253,137.6874,222.4215,0.00040774,6.212e-05,0.0,0 STARLINK-4605,1 53616U 22104AE  23025.16880918  .00006212  00000-0  40774-3 0  9999,2 53616  53.2166 299.6253 0001263 137.6874 222.4215 15.08868759 23853,6917.792,95.436,540.531,538.784,0.0
53616.0,STARLINK-4605,PAYLOAD,2023-01-25 13:35:25,15.0883812,0.0001236,53.2162,297.8494,60.1658,299.9456,-0.00014639,-2.617e-05,0.0,0 STARLINK-4605,1 53616U 22104AE  23025.56626570 -.00002617  00000-0 -14639-3 0  9993,2 53616  53.2162 297.8494 0001236  60.1658 299.9456 15.08838120 23233,6917.886,95.438,540.606,538.896,0.0
53616.0,STARLINK-4605,PAYLOAD,2023-01-26 00:43:07,15.08829953,9.49e-05,53.2169,295.7655,94.8419,265.2681,-0.00032951,-5.526e-05,0.0,0 STARLINK-4605,1 53616U 22104AE  23026.02994862 -.00005526  00000-0 -32951-3 0  9996,2 53616  53.2169 295.7655 0000949  94.8419 265.2681 15.08829953 23987,6917.911,95.438,540.433,539.12,0.0
53616.0,STARLINK-4605,PAYLOAD,2023-01-27 00:33:55,15.08837309,9.84e-05,53.2162,291.3049,111.0912,249.0185,0.00069644,0.00010812,0.0,0 STARLINK-4605,1 53616U 22104AE  23027.02355660  .00010812  00000-0  69644-3 0  9995,2 53616  53.2162 291.3049 0000984 111.0912 249.0185 15.08837309 23453,6917.889,95.438,540.434,539.073,0.0
53616.0,STARLINK-4605,PAYLOAD,2023-01-27 13:17:00,15.08837913,8.87e-05,53.2164,288.9257,98.7523,261.357,0.00044797,6.848e-05,0.0,0 STARLINK-4605,1 53616U 22104AE  23027.55347952  .00006848  00000-0  44797-3 0  9994,2 53616  53.2164 288.9257 0000887  98.7523 261.3570 15.08837913 23534,6917.887,95.438,540.365,539.138,0.0
53616.0,STARLINK-4605,PAYLOAD,2023-01-27 21:13:56,15.08832382,9.31e-05,53.2162,287.4387,98.3209,261.7889,0.00021145,3.078e-05,0.0,0 STARLINK-4605,1 53616U 22104AE  23027.88468229  .00003078  00000-0  21145-3 0  9995,2 53616  53.2162 287.4387 0000931  98.3209 261.7889 15.08832382 24260,6917.904,95.438,540.413,539.125,0.0
53616.0,STARLINK-4605,PAYLOAD,2023-01-28 13:07:47,15.08838383,0.0001049,53.2158,284.4638,105.1885,254.9223,0.0001179,1.589e-05,0.0,0 STARLINK-4605,1 53616U 22104AE  23028.54708033  .00001589  00000-0  11790-3 0  9999,2 53616  53.2158 284.4638 0001049 105.1885 254.9223 15.08838383 23687,6917.885,95.438,540.476,539.025,0.0
53616.0,STARLINK-4605,PAYLOAD,2023-01-28 21:04:44,15.08820291,0.000113,53.2161,282.9774,89.5624,270.5498,-0.00015908,-2.817e-05,0.0,0 STARLINK-4605,1 53616U 22104AE  23028.87829166 -.00002817  00000-0 -15908-3 0  9998,2 53616  53.2161 282.9774 0001130  89.5624 270.5498 15.08820291 24411,6917.941,95.439,540.587,539.024,0.0
53616.0,STARLINK-4605,PAYLOAD,2023-01-29 01:50:53,15.0882294,0.0001122,53.216,282.0852,95.1886,264.9234,-0.00011539,-2.123e-05,0.0,0 STARLINK-4605,1 53616U 22104AE  23029.07701216 -.00002123  00000-0 -11539-3 0  9992,2 53616  53.2160 282.0852 0001122  95.1886 264.9234 15.08822940 23767,6917.933,95.439,540.574,539.021,0.0
53616.0,STARLINK-4605,PAYLOAD,2023-01-29 17:44:45,15.08833612,0.0001198,53.2157,279.1118,91.3292,268.7838,0.00017325,2.47e-05,0.0,0 STARLINK-4605,1 53616U 22104AE  23029.73941288  .00002470  00000-0  17325-3 0  9992,2 53616  53.2157 279.1118 0001198  91.3292 268.7838 15.08833612 23868,6917.9,95.438,540.594,538.936,0.0
53616.0,STARLINK-4605,PAYLOAD,2023-01-29 22:30:54,15.08836935,0.0001189,53.2156,278.2196,92.5075,267.6053,0.00027504,4.092e-05,0.0,0 STARLINK-4605,1 53616U 22104AE  23029.93813285  .00004092  00000-0  27504-3 0  9991,2 53616  53.2156 278.2196 0001189  92.5075 267.6053 15.08836935 24572,6917.89,95.438,540.577,538.932,0.0
53616.0,STARLINK-4605,PAYLOAD,2023-01-30 12:49:22,15.08851482,0.0001234,53.2155,275.5441,86.3574,273.7559,0.0006948,0.00010791,0.0,0 STARLINK-4605,1 53616U 22104AE  23030.53429149  .00010791  00000-0  69480-3 0  9993,2 53616  53.2155 275.5441 0001234  86.3574 273.7559 15.08851482 24663,6917.845,95.437,540.564,538.857,0.0
53616.0,STARLINK-4605,PAYLOAD,2023-01-30 17:35:31,15.08861003,0.000124,53.2153,274.6517,87.0576,273.0558,0.00084594,0.00013208,0.0,0 STARLINK-4605,1 53616U 22104AE  23030.73300874  .00013208  00000-0  84594-3 0  9997,2 53616  53.2153 274.6517 0001240  87.0576 273.0558 15.08861003 24013,6917.816,95.436,540.539,538.823,0.0
53616.0,STARLINK-4605,PAYLOAD,2023-01-30 22:21:41,15.08865968,0.0001243,53.2153,273.7596,87.1981,272.9153,0.00083435,0.00013025,0.0,0 STARLINK-4605,1 53616U 22104AE  23030.93172548  .00013025  00000-0  83435-3 0  9994,2 53616  53.2153 273.7596 0001243  87.1981 272.9153 15.08865968 24725,6917.801,95.436,540.526,538.806,0.0
53616.0,STARLINK-4605,PAYLOAD,2023-01-31 12:40:08,15.08860059,0.0001164,53.2154,271.0833,83.9538,276.1587,0.00037544,5.696e-05,0.0,0 STARLINK-4605,1 53616U 22104AE  23031.52788014  .00005696  00000-0  37544-3 0  9996,2 53616  53.2154 271.0833 0001164  83.9538 276.1587 15.08860059 24133,6917.819,95.436,540.489,538.879,0.0
53616.0,STARLINK-4605,PAYLOAD,2023-01-31 22:12:27,15.08856168,0.0001264,53.2155,269.2988,94.9886,265.1251,0.00020189,2.928e-05,0.0,0 STARLINK-4605,1 53616U 22104AE  23031.92531812  .00002928  00000-0  20189-3 0  9994,2 53616  53.2155 269.2988 0001264  94.9886 265.1251 15.08856168 24876,6917.831,95.437,540.57,538.822,0.0
53616.0,STARLINK-4605,PAYLOAD,2023-02-01 01:23:13,15.08862237,0.0001259,53.2154,268.704,92.8807,267.233,0.00033663,5.077e-05,0.0,0 STARLINK-4605,1 53616U 22104AE  23032.05779523  .00005077  00000-0  33663-3 0  9991,2 53616  53.2154 268.7040 0001259  92.8807 267.2330 15.08862237 24899,6917.812,95.436,540.548,538.806,0.0
53616.0,STARLINK-4605,PAYLOAD,2023-02-02 01:14:01,15.08838202,0.0001314,53.2154,264.2433,86.4896,273.6246,0.00023641,3.476e-05,0.0,0 STARLINK-4605,1 53616U 22104AE  23033.05140391  .00003476  00000-0  23641-3 0  9993,2 53616  53.2154 264.2433 0001314  86.4896 273.6246 15.08838202 24369,6917.886,95.438,540.66,538.842,0.0
53616.0,STARLINK-4605,PAYLOAD,2023-02-02 12:21:43,15.0884331,0.0001303,53.2152,262.1621,85.6084,274.5057,0.00037091,5.621e-05,0.0,0 STARLINK-4605,1 53616U 22104AE  23033.51508352  .00005621  00000-0  37091-3 0  9997,2 53616  53.2152 262.1621 0001303  85.6084 274.5057 15.08843310 25111,6917.87,95.437,540.637,538.834,0.0
53616.0,STARLINK-4605,PAYLOAD,2023-02-02 21:54:01,15.08852869,0.0001319,53.215,260.378,84.5382,275.5761,0.00059034,9.123e-05,0.0,0 STARLINK-4605,1 53616U 22104AE  23033.91252070  .00009123  00000-0  59034-3 0  9996,2 53616  53.2150 260.3780 0001319  84.5382 275.5761 15.08852869 24493,6917.841,95.437,540.619,538.794,0.0
53616.0,STARLINK-4605,PAYLOAD,2023-02-03 16:58:38,15.08867225,0.0001258,53.2143,256.8111,88.0252,272.0884,0.00050747,7.804e-05,0.0,0 STARLINK-4605,1 53616U 22104AE  23034.70738820  .00007804  00000-0  50747-3 0  9992,2 53616  53.2143 256.8111 0001258  88.0252 272.0884 15.08867225 25299,6917.797,95.436,540.532,538.792,0.0
53616.0,STARLINK-4605,PAYLOAD,2023-02-04 21:35:35,15.08831804,0.0001315,53.2144,251.4568,86.7354,273.3788,-0.0003053,-5.142e-05,0.0,0 STARLINK-4605,1 53616U 22104AE  23035.89971324 -.00005142  00000-0 -30530-3 0  9994,2 53616  53.2144 251.4568 0001315  86.7354 273.3788 15.08831804 24794,6917.905,95.438,540.68,538.861,0.0
53616.0,STARLINK-4605,PAYLOAD,2023-02-05 13:29:27,15.08835281,0.0001312,53.2155,248.4821,94.8535,265.2607,-7.5494e-05,-1.489e-05,0.0,0 STARLINK-4605,1 53616U 22104AE  23036.56212344 -.00001489  00000-0 -75494-4 0  9998,2 53616  53.2155 248.4821 0001312  94.8535 265.2607 15.08835281 25572,6917.895,95.438,540.667,538.852,0.0
53616.0,STARLINK-4605,PAYLOAD,2023-02-05 19:50:59,15.08859968,0.0002272,53.2158,247.2931,116.974,243.1484,-0.00040946,-6.803e-05,0.0,0 STARLINK-4605,1 53616U 22104AE  23036.82707704 -.00006803  00000-0 -40946-3 0  9994,2 53616  53.2158 247.2931 0002272 116.9740 243.1484 15.08859968 24939,6917.819,95.436,541.256,538.113,0.0
53616.0,STARLINK-4605,PAYLOAD,2023-02-05 21:26:23,15.08816357,0.0001417,53.2157,246.9958,87.6987,272.4167,0.00022217,3.247e-05,0.0,0 STARLINK-4605,1 53616U 22104AE  23036.89332854  .00003247  00000-0  22217-3 0  9999,2 53616  53.2157 246.9958 0001417  87.6987 272.4167 15.08816357 25625,6917.953,95.439,540.798,538.837,0.0
